[{"OBJECT_NAME":"STARLINK-30531","OBJECT_ID":"2023-153H","EPOCH":"2026-03-09T22:00:01.999584","MEAN_MOTION":15.26715608,"ECCENTRICITY":0.0001474,"INCLINATION":43.002,"RA_OF_ASC_NODE":65.5385,"ARG_OF_PERICENTER":254.8482,"MEAN_ANOMALY":110.8835,"EPHEMERIS_TYPE":0,"CLASSIFICATION_TYPE":"U","NORAD_CAT_ID":57998,"ELEMENT_SET_NO":999,"REV_AT_EPOCH":552,"BSTAR":0.0018462097,"MEAN_MOTION_DOT":0.00049559,"MEAN_MOTION_DDOT":0},{"OBJECT_NAME":"COSMOS 546","OBJECT_ID":"1973-005A","EPOCH":"2026-03-09T21:40:39.247392","MEAN_MOTION":15.29707303,"ECCENTRICITY":0.00147738,"INCLINATION":50.6327,"RA_OF_ASC_NODE":289.914,"ARG_OF_PERICENTER":261.1516,"MEAN_ANOMALY":98.7778,"EPHEMERIS_TYPE":0,"CLASSIFICATION_TYPE":"U","NORAD_CAT_ID":6350,"ELEMENT_SET_NO":999,"REV_AT_EPOCH":92802,"BSTAR":9.142057e-5,"MEAN_MOTION_DOT":2.316e-5,"MEAN_MOTION_DDOT":0}]
